{
"type": "FeatureCollection",
"name": "Kalimantan",
"crs": { "type": "name", "properties": { "name": "urn:ogc:def:crs:OGC:1.3:CRS84" } },
"features": [
{ "type": "Feature", "properties": { "wkt_geom": "Polygon ((107.84318859 -0.18237325, 110.23780912 -3.56988521, 116.37037386 -4.56277665, 118.00572446 -3.0442368, 119.05702128 -0.18237325, 120.34193961 2.97151719, 120.57556112 6.4758399, 118.9986159 7.41032596, 114.61821251 7.76075823, 111.11388979 6.125", "area": 144497418.347 }, "geometry": { "type": "Polygon", "coordinates": [ [ [ 107.84318859413105, -0.182373253237625 ], [ 110.237809115063257, -3.569885209678304 ], [ 116.370373863792082, -4.56277664518678 ], [ 118.005724463453092, -3.044236802644406 ], [ 119.057021277520889, -0.182373253237625 ], [ 120.341939605825985, 2.97151718896577 ], [ 120.57556112006327, 6.475839902525093 ], [ 118.99861589896156, 7.410325959474248 ], [ 114.618212507012416, 7.760758230830179 ], [ 111.113889793453083, 6.125407631169161 ], [ 108.018404729809021, 3.205138703203056 ], [ 108.018404729809021, 1.861814996338648 ], [ 108.018404729809021, 1.861814996338648 ], [ 107.84318859413105, -0.182373253237625 ] ] ] } },
{ "type": "Feature", "properties": { "wkt_geom": "Polygon ((93.06662782 7.00148831, 98.20630113 -4.09553362, 104.39727126 -6.54855952, 106.03262186 -6.66537027, 106.96710792 -4.44596589, 105.33175732 0.34327515, 103.4627852 3.73078711, 101.12657006 5.01570544, 97.38862583 6.53424528, 96.1037075 7.1182990", "area": 127952773.707 }, "geometry": { "type": "Polygon", "coordinates": [ [ [ 93.066627818622592, 7.001488309558997 ], [ 98.206301131842935, -4.095533616712196 ], [ 104.397271259131088, -6.548559516203724 ], [ 106.032621858792098, -6.665370273322374 ], [ 106.967107915741252, -4.44596588806813 ], [ 105.331757316080228, 0.343275153796277 ], [ 103.462785202181919, 3.73078711023696 ], [ 101.12657005980904, 5.015705438542046 ], [ 97.388625832012423, 6.53424528108442 ], [ 96.103707503707341, 7.11829906667764 ], [ 95.986896746588698, 7.235109823796286 ], [ 93.066627818622592, 7.001488309558997 ] ] ] } }
]
}
